satname,norad_id,inclination_deg,eccentricity,mean_motion_rev_per_day,perigee_km,apogee_km,l1,l2
STARLINK-1008,44714,53.1539,0.0002282,15.32710833,466.16618433026633,469.290637303764,1 44714U 19074B   26088.21523762  .00066437  00000+0  20673-2 0  9998,2 44714  53.1539  87.8327 0002282  72.8365 287.2886 15.32710833351865
STARLINK-1012,44718,53.1595,0.0002814,15.31896605,468.2268795483833,472.08109771678573,1 44718U 19074F   26088.20570602  .00061715  00000+0  19719-2 0  9999,2 44718  53.1595  88.0485 0002814  75.8306 284.3008 15.31896605351852
STARLINK-1017,44723,53.0476,0.0002889,15.25786718,486.44033657056843,490.4078355660986,1 44723U 19074L   26088.20424309  .00053512  00000+0  20653-2 0  9992,2 44723  53.0476  81.3080 0002889  84.5545 275.5782 15.25786718351943
STARLINK-1019,44724,53.0401,7.56e-05,15.87427907,308.99147076668487,310.0026410359369,1 44724U 19074M   26088.25003471  .00262606  00000+0  94733-3 0  9998,2 44724  53.0401  37.9312 0000756 186.5758 268.5443 15.87427907  6007
STARLINK-1020,44725,53.1619,0.0001979,15.31092311,471.19633226558017,473.90783500488396,1 44725U 19074N   26087.34568333  .00051217  00000+0  16824-2 0  9999,2 44725  53.1619 117.1618 0001979  72.2940 287.8277 15.31092311351369
STARLINK-1031,44736,53.0351,0.0002583,16.03755431,262.3136757456814,265.74501888070336,1 44736U 19074Z   26088.17140399  .00607761  18500-3  93369-3 0  9990,2 44736  53.0351  19.8836 0002583 129.0651 231.0610 16.03755431352806
STARLINK-1036,44741,53.0482,0.0005253,15.59674179,385.0447456081929,392.1538787777836,1 44741U 19074AE  26088.17994259  .00128847  00000+0  15651-2 0  9990,2 44741  53.0482  93.9184 0005253  21.8756 338.2480 15.59674179351766
STARLINK-1039,44744,53.0588,0.0001074,15.23184139,495.5052228254799,496.9818397636027,1 44744U 19074AH  26087.38951826  .00038165  00000+0  15992-2 0  9999,2 44744  53.0588 129.0411 0001074 314.4320  45.6588 15.23184139351205
STARLINK-1042,44747,53.0453,0.0001585,15.50847008,413.1752029917743,415.3283902403009,1 44747U 19074AL  26088.05755762  .00028897  00000+0  49794-3 0  9997,2 44747  53.0453   1.7975 0001585 145.0375 215.0738 15.50847008353073
STARLINK-1043,44748,53.051,0.0002574,15.54929008,400.6137025329417,404.104301874876,1 44748U 19074AM  26088.20496063  .00039521  00000+0  58467-3 0  9994,2 44748  53.0510 100.2481 0002574  86.7860 273.3445 15.54929008351686
STARLINK-1046,44751,53.0526,0.0002472,15.45575322,428.00523234435695,431.37102108700583,1 44751U 19074AQ  26088.08587982  .00032730  00000+0  67583-3 0  9999,2 44751  53.0526 118.5333 0002472 278.0727  81.9998 15.45575322351413
STARLINK-1047,44752,53.0689,0.0001637,15.32998647,465.7510012920684,467.9920570845252,1 44752U 19074AR  26088.18784505  .00016332  00000+0  51561-3 0  9990,2 44752  53.0689  54.8899 0001637 316.3978  43.6893 15.32998647352335
STARLINK-1048,44753,53.0509,0.0002664,15.56921788,394.7671934690179,398.37675841139935,1 44753U 19074AS  26088.18598083  .00125954  00000+0  16983-2 0  9994,2 44753  53.0509  74.5583 0002664  71.6485 288.4816 15.56921788352030
STARLINK-1053,44758,53.0221,0.0005933,16.11029007,240.09303027412625,247.95088409272012,1 44758U 19074AX  26088.17001464  .01038700  66326-3  10100-2 0  9995,2 44758  53.0221 342.7634 0005933 199.9903 160.0900 16.11029007353321
STARLINK-1063,44768,53.1578,0.0002883,15.31734757,468.66188700856947,472.6108897443082,1 44768U 19074BH  26088.20782351  .00057294  00000+0  18418-2 0  9992,2 44768  53.1578 128.6464 0002883  58.9624 301.1660 15.31734757351308
STARLINK-1067,44771,53.0503,0.0006442,15.60748048,381.1379331022972,389.85219665468594,1 44771U 19074BL  26088.05401229  .00107350  00000+0  12556-2 0  9997,2 44771  53.0503 109.9858 0006442  38.7735 321.3739 15.60748048351538
STARLINK-1068,44772,53.0459,0.0004688,15.66434754,365.95246571333337,372.27868973020577,1 44772U 19074BM  26088.22456403  .00077176  00000+0  72642-3 0  9996,2 44772  53.0459  83.9765 0004688  19.2276 340.8915 15.66434754351906
STARLINK-1114,44927,53.0471,0.0005305,15.53566192,402.72458103296685,409.92289387540495,1 44927U 20001P   26088.12722531  .00097721  00000+0  14968-2 0  9991,2 44927  53.0471 235.8190 0005305 197.6098 162.4728 15.53566192343114
STARLINK-1123,44930,53.1495,0.0001443,15.29822608,475.35302420877906,477.3312268844129,1 44930U 20001S   26088.18152286  .00039668  00000+0  13600-2 0  9993,2 44930  53.1495 254.7155 0001443  27.9839 332.1239 15.29822608342856
STARLINK-1094,44941,53.157,0.0001371,15.31152804,471.4324390544416,473.3108485245684,1 44941U 20001AD  26087.88366920  .00047230  00000+0  15503-2 0  9991,2 44941  53.1570 230.3792 0001371  86.1202 273.9956 15.31152804343171
STARLINK-1122,44949,53.1624,0.0001283,15.30196201,474.3471260461838,476.10569909785045,1 44949U 20001AM  26088.10830341  .00000474  00000+0  28120-4 0  9998,2 44949  53.1624 229.4072 0001283 101.0092 259.1053 15.30196201343201
STARLINK-1080,44961,53.0493,0.0002978,15.50397792,413.54059793321176,417.5869261070711,1 44961U 20001AZ  26087.78085255  .00092693  00000+0  15924-2 0  9991,2 44961  53.0493 196.7487 0002978 199.4551 160.6344 15.50397792343633
STARLINK-1090,44968,53.1545,0.0001196,15.30070663,474.78156649337325,476.4209806884164,1 44968U 20001BG  26088.08220239  .00030164  00000+0  10305-2 0  9998,2 44968  53.1545 216.4400 0001196  27.6831 332.4233 15.30070663343389
STARLINK-1132,45044,53.1557,0.0004132,15.45658602,426.6306953932881,432.256479990956,1 45044U 20006A   26088.20022692  .00075525  00000+0  15350-2 0  9991,2 45044  53.1557 161.3435 0004132 313.3255  46.7407 15.45658602339948
STARLINK-1131,45047,53.1588,9.23e-05,15.30195137,474.5970237630063,475.86215523542796,1 45047U 20006D   26087.54194027  .00002139  00000+0  84332-4 0  9991,2 45047  53.1588 193.4102 0000923 100.1289 259.9816 15.30195137339434
STARLINK-1134,45048,53.0309,0.0005656,15.45929099,424.79954753917445,432.49938438947356,1 45048U 20006E   26088.16131980  .00034050  00000+0  69387-3 0  9999,2 45048  53.0309 145.5307 0005656 265.1427  94.8933 15.45929099340159
STARLINK-1156,45054,53.1616,9.49e-05,15.30210312,474.5338996295286,475.8346600084378,1 45054U 20006L   26087.69889866  .00002742  00000+0  10462-3 0  9999,2 45054  53.1616 192.6954 0000949  81.0860 279.0248 15.30210312339457
STARLINK-1159,45057,53.0414,0.0003412,15.88707051,303.62628898215735,308.1874805291154,1 45057U 20006P   26088.25003471  .00214358  00000+0  73009-3 0  9999,2 45057  53.0414 135.8662 0003412  29.6477  31.3098 15.88707051  6053
STARLINK-1166,45060,53.05,0.0001871,15.48337566,420.31668660356627,422.8611440410805,1 45060U 20006S   26088.21838153  .00094932  00000+0  17527-2 0  9998,2 45060  53.0500 179.4251 0001871 298.0449  62.0369 15.48337566339685
STARLINK-1169,45061,53.1598,0.000173,15.3114767,471.20181649120514,473.57209778037304,1 45061U 20006T   26087.98938571  .00017657  00000+0  58938-3 0  9998,2 45061  53.1598 191.3103 0001730  40.6535 319.4595 15.31147670339502
STARLINK-1171,45062,53.0442,0.0003611,15.65759077,368.61941327564546,373.4936808553357,1 45062U 20006U   26087.48902620  .00057181  00000+0  55585-3 0  9991,2 45062  53.0442 157.2303 0003611  29.0525 331.0691 15.65759077339934
STARLINK-1133,45064,53.1608,0.0001053,15.30229008,474.4068092755497,475.8501069810318,1 45064U 20006W   26087.73731636  .00005948  00000+0  21258-3 0  9992,2 45064  53.1608 169.3225 0001053  88.9154 271.1967 15.30229008339790
STARLINK-1167,45071,53.1586,0.00023,15.30698883,472.1499708199626,475.3018277536339,1 45071U 20006AD  26087.63791105  .00050957  00000+0  16945-2 0  9992,2 45071  53.1586 169.8754 0002300  40.2897 319.8274 15.30698883339776
STARLINK-1168,45072,53.1589,0.0001326,15.30192236,474.32949386353357,476.14700898021056,1 45072U 20006AE  26088.25003471  .00032695  00000+0  11114-2 0  9996,2 45072  53.1589 167.1521 0001326  91.1649 318.9775 15.30192236  5913
STARLINK-1172,45074,53.157,0.0001994,15.31781908,469.1302252310379,471.86146000867484,1 45074U 20006AG  26088.22780192  .00059241  00000+0  19008-2 0  9993,2 45074  53.1570 166.9698 0001994  35.8242 324.2893 15.31781908339868
STARLINK-1153,45080,53.1615,0.0002782,15.30731747,471.72166738195665,475.53398933245353,1 45080U 20006AN  26087.49159173  .00049427  00000+0  16426-2 0  9993,2 45080  53.1615 170.4723 0002782  33.0678 327.0497 15.30731747339757
STARLINK-1151,45081,53.0522,0.0003945,15.67806331,362.519595324271,367.84007230615134,1 45081U 20006AP  26087.58350433  .00077298  00000+0  68840-3 0  9991,2 45081  53.0522 146.8542 0003945  36.5451 323.5833 15.67806331340084
STARLINK-1185,45087,53.1614,0.0001344,15.38781839,448.79274374802935,450.62806913088025,1 45087U 20006AV  26088.25003471  .00015406  00000+0  40524-3 0  9991,2 45087  53.1614 151.0435 0001344  87.8101 212.2409 15.38781839  5853
STARLINK-1183,45088,53.1595,0.0001192,15.30198006,474.40410287400846,476.0379434267279,1 45088U 20006AW  26088.15128887 -.00000524  00000+0 -55563-5 0  9998,2 45088  53.1595 152.1840 0001192  93.1425 266.9712 15.30198006340062
STARLINK-1152,45096,53.0381,0.0003119,15.40806912,441.59882420039594,445.854302691273,1 45096U 20006BE  26088.07051027  .00055938  00000+0  13444-2 0  9995,2 45096  53.0381 114.8904 0003119 332.1284  27.9553 15.40806912340576
STARLINK-1184,45098,53.0519,0.0002927,15.11198818,530.5200499565399,534.5655619149338,1 45098U 20006BG  26088.18217817  .00029152  00000+0  17265-2 0  9994,2 45098  53.0519 157.3220 0002927 188.9495 171.1445 15.11198818339983
STARLINK-1193,45100,53.0508,0.0005775,15.59012583,386.60467475984933,394.4224661687349,1 45100U 20006BJ  26088.15555669  .00043243  00000+0  54858-3 0  9992,2 45100  53.0508 135.9470 0005775  35.6507 324.4889 15.59012583340286
STARLINK-1143,45179,53.0433,0.000441,15.67596169,362.808453386102,368.75659040441315,1 45179U 20012B   26088.25003471  .00258807  00000+0  22621-2 0  9991,2 45179  53.0433 233.8740 0004410 193.2084 266.5402 15.67596169  5947
